[{"OBJECT_NAME":"STARLINK-31048","OBJECT_ID":"2023-192P","EPOCH":"2026-03-09T09:27:28.069632","MEAN_MOTION":15.30193289,"ECCENTRICITY":0.00013162,"INCLINATION":53.1609,"RA_OF_ASC_NODE":63.818,"ARG_OF_PERICENTER":94.5572,"MEAN_ANOMALY":265.558,"EPHEMERIS_TYPE":0,"CLASSIFICATION_TYPE":"U","NORAD_CAT_ID":58544,"ELEMENT_SET_NO":999,"REV_AT_EPOCH":12594,"BSTAR":3.023011e-5,"MEAN_MOTION_DOT":5.36e-6,"MEAN_MOTION_DDOT":0},{"OBJECT_NAME":"TIANMU-1 19","OBJECT_ID":"2023-208A","EPOCH":"2026-03-09T22:13:36.801696","MEAN_MOTION":15.2984143,"ECCENTRICITY":0.00039292,"INCLINATION":97.4383,"RA_OF_ASC_NODE":184.9132,"ARG_OF_PERICENTER":316.2611,"MEAN_ANOMALY":43.8317,"EPHEMERIS_TYPE":0,"CLASSIFICATION_TYPE":"U","NORAD_CAT_ID":58660,"ELEMENT_SET_NO":999,"REV_AT_EPOCH":12214,"BSTAR":0.00040995676,"MEAN_MOTION_DOT":0.00011779,"MEAN_MOTION_DDOT":0}]
